[{"OBJECT_NAME":"ONEWEB-0372","OBJECT_ID":"2021-090V","EPOCH":"2026-03-09T16:37:26.955840","MEAN_MOTION":13.20771594,"ECCENTRICITY":0.0001632,"INCLINATION":87.9171,"RA_OF_ASC_NODE":294.3066,"ARG_OF_PERICENTER":88.4236,"MEAN_ANOMALY":271.7084,"EPHEMERIS_TYPE":0,"CLASSIFICATION_TYPE":"U","NORAD_CAT_ID":49298,"ELEMENT_SET_NO":999,"REV_AT_EPOCH":21670,"BSTAR":-0.00033596779,"MEAN_MOTION_DOT":-1.24e-6,"MEAN_MOTION_DDOT":0},{"OBJECT_NAME":"COSMOS 2499 DEB","OBJECT_ID":"2014-028AB","EPOCH":"2026-03-01T23:39:21.520800","MEAN_MOTION":12.82260259,"ECCENTRICITY":0.0214256,"INCLINATION":82.4575,"RA_OF_ASC_NODE":330.5201,"ARG_OF_PERICENTER":278.0622,"MEAN_ANOMALY":79.6222,"EPHEMERIS_TYPE":0,"CLASSIFICATION_TYPE":"U","NORAD_CAT_ID":49944,"ELEMENT_SET_NO":999,"REV_AT_EPOCH":20128,"BSTAR":0.0096185,"MEAN_MOTION_DOT":2.497e-5,"MEAN_MOTION_DDOT":0}]
